[{"OBJECT_NAME":"AETHER-12","OBJECT_ID":"2026-004W","EPOCH":"2026-03-09T23:36:30.678624","MEAN_MOTION":14.8783269,"ECCENTRICITY":0.00067724,"INCLINATION":97.8006,"RA_OF_ASC_NODE":69.1805,"ARG_OF_PERICENTER":98.9277,"MEAN_ANOMALY":261.2706,"EPHEMERIS_TYPE":0,"CLASSIFICATION_TYPE":"U","NORAD_CAT_ID":67383,"ELEMENT_SET_NO":999,"REV_AT_EPOCH":853,"BSTAR":0.00015033861,"MEAN_MOTION_DOT":1.32e-5,"MEAN_MOTION_DDOT":0},{"OBJECT_NAME":"CZ-6A DEB","OBJECT_ID":"2024-140BM","EPOCH":"2026-03-09T15:29:08.555424","MEAN_MOTION":14.58449197,"ECCENTRICITY":0.0134003,"INCLINATION":88.991,"RA_OF_ASC_NODE":281.8497,"ARG_OF_PERICENTER":263.363,"MEAN_ANOMALY":95.2314,"EPHEMERIS_TYPE":0,"CLASSIFICATION_TYPE":"U","NORAD_CAT_ID":60660,"ELEMENT_SET_NO":999,"REV_AT_EPOCH":8401,"BSTAR":0.0008379,"MEAN_MOTION_DOT":4.417e-5,"MEAN_MOTION_DDOT":0}]
